KUIPER-00028            
1 63741U 25088T   26066.53586999 -.00006363  00000+0 -80719-3 0  9995
2 63741  51.8983 102.5772 0000854  56.5865 303.5179 14.79894894 47746
KUIPER-00029            
1 63742U 25088U   26065.86864492 -.00114249  00000+0 -14083-1 0  9990
2 63742  51.8999 103.1287 0000659 127.6020 232.5003 14.83146545 47204
KUIPER-00030            
1 63743U 25088V   26066.55079902  .00005990  00000+0  81320-3 0  9992
2 63743  51.8994 120.0040 0010864  64.1695 296.0387 14.79952324 47314
KUIPER-00031            
1 63744U 25088W   26066.54905654  .00005879  00000+0  73228-3 0  9998
2 63744  51.8990 105.2111 0002062 135.7453 224.3677 14.83643521 47231
KUIPER-00032            
1 63745U 25088X   26066.32804521  .00024794  00000+0  67754-3 0  9990
2 63745  51.8705  35.6424 0005338 104.4539 255.7041 15.37232726 49186
KUIPER-00033            
1 63746U 25088Y   26066.60067445  .00007456  00000+0  92544-3 0  9999
2 63746  51.8992 135.1453 0000879  43.2584 316.8449 14.83448954 47303
KUIPER-00034            
1 63747U 25088Z   26066.28632400  .00006030  00000+0  75251-3 0  9996
2 63747  51.9004  98.8804 0001792 344.9740  15.1170 14.83525573 47464
KUIPER-00035            
1 63748U 25088AA  26066.45963201  .00008558  00000+0  10622-2 0  9999
2 63748  51.9002 123.7791 0003855  68.4857 291.6518 14.83283922 47180
KUIPER-00037            
1 63749U 25088AB  26066.54806894  .00006992  00000+0  94428-3 0  9991
2 63749  51.8986 122.5298 0000870  63.1237 296.9815 14.79974927 47992
KUIPER-00038            
1 63750U 25088AC  26066.49673270 -.00002396  00000+0 -28532-3 0  9996
2 63750  51.9009 107.7851 0000728 110.9730 249.1311 14.79942370 47192
KUIPER-00039            
1 64500U 25134A   26066.46942741  .00005599  00000+0  76249-3 0  9995
2 64500  51.8993 242.9099 0001093  68.9268 291.1811 14.79953253 39743
KUIPER-00040            
1 64501U 25134B   26066.52431949 -.00008708  00000+0 -11124-2 0  9993
2 64501  51.8986 253.8079 0012356 259.7009 100.2560 14.79945313 39594
KUIPER-00041            
1 64502U 25134C   26066.53150060  .00004903  00000+0  69088-3 0  9991
2 64502  51.8981 255.2112 0007127 258.5724 101.4438 14.78726436 39572
KUIPER-00042            
1 64503U 25134D   26065.51411736  .00004650  00000+0  63795-3 0  9997
2 64503  51.8972 255.6339 0007100 270.8636  89.1513 14.79965457 39483
KUIPER-00043            
1 64504U 25134E   26064.89147065  .00004646  00000+0  58233-3 0  9995
2 64504  51.9013 249.9165 0000994 325.3550  34.7349 14.83803217 39516
KUIPER-00044            
1 64505U 25134F   26066.52171485  .00008778  00000+0  11785-2 0  9991
2 64505  51.9054 256.1798 0008365 271.1763  88.8241 14.79935729 39563
