[{"OBJECT_NAME":"KUIPER-00028","OBJECT_ID":"2025-088T","EPOCH":"2026-03-07T12:51:39.167136","MEAN_MOTION":14.79894894,"ECCENTRICITY":8.54e-5,"INCLINATION":51.8983,"RA_OF_ASC_NODE":102.5772,"ARG_OF_PERICENTER":56.5865,"MEAN_ANOMALY":303.5179,"EPHEMERIS_TYPE":0,"CLASSIFICATION_TYPE":"U","NORAD_CAT_ID":63741,"ELEMENT_SET_NO":999,"REV_AT_EPOCH":4774,"BSTAR":-0.0008071893,"MEAN_MOTION_DOT":-6.363e-5,"MEAN_MOTION_DDOT":0},{"OBJECT_NAME":"KUIPER-00029","OBJECT_ID":"2025-088U","EPOCH":"2026-03-06T20:50:50.921088","MEAN_MOTION":14.83146545,"ECCENTRICITY":6.592e-5,"INCLINATION":51.8999,"RA_OF_ASC_NODE":103.1287,"ARG_OF_PERICENTER":127.602,"MEAN_ANOMALY":232.5003,"EPHEMERIS_TYPE":0,"CLASSIFICATION_TYPE":"U","NORAD_CAT_ID":63742,"ELEMENT_SET_NO":999,"REV_AT_EPOCH":4720,"BSTAR":-0.014083225,"MEAN_MOTION_DOT":-0.00114249,"MEAN_MOTION_DDOT":0},{"OBJECT_NAME":"KUIPER-00030","OBJECT_ID":"2025-088V","EPOCH":"2026-03-07T13:13:09.035328","MEAN_MOTION":14.79952324,"ECCENTRICITY":0.00108643,"INCLINATION":51.8994,"RA_OF_ASC_NODE":120.004,"ARG_OF_PERICENTER":64.1695,"MEAN_ANOMALY":296.0387,"EPHEMERIS_TYPE":0,"CLASSIFICATION_TYPE":"U","NORAD_CAT_ID":63743,"ELEMENT_SET_NO":999,"REV_AT_EPOCH":4731,"BSTAR":0.0008132008,"MEAN_MOTION_DOT":5.99e-5,"MEAN_MOTION_DDOT":0},{"OBJECT_NAME":"KUIPER-00031","OBJECT_ID":"2025-088W","EPOCH":"2026-03-07T13:10:38.485056","MEAN_MOTION":14.83643521,"ECCENTRICITY":0.00020626,"INCLINATION":51.899,"RA_OF_ASC_NODE":105.2111,"ARG_OF_PERICENTER":135.7453,"MEAN_ANOMALY":224.3677,"EPHEMERIS_TYPE":0,"CLASSIFICATION_TYPE":"U","NORAD_CAT_ID":63744,"ELEMENT_SET_NO":999,"REV_AT_EPOCH":4723,"BSTAR":0.00073228329,"MEAN_MOTION_DOT":5.879e-5,"MEAN_MOTION_DDOT":0},{"OBJECT_NAME":"KUIPER-00032","OBJECT_ID":"2025-088X","EPOCH":"2026-03-07T07:52:23.106144","MEAN_MOTION":15.37232726,"ECCENTRICITY":0.00053381,"INCLINATION":51.8705,"RA_OF_ASC_NODE":35.6424,"ARG_OF_PERICENTER":104.4539,"MEAN_ANOMALY":255.7041,"EPHEMERIS_TYPE":0,"CLASSIFICATION_TYPE":"U","NORAD_CAT_ID":63745,"ELEMENT_SET_NO":999,"REV_AT_EPOCH":4918,"BSTAR":0.00067753984,"MEAN_MOTION_DOT":0.00024794,"MEAN_MOTION_DDOT":0},{"OBJECT_NAME":"KUIPER-00033","OBJECT_ID":"2025-088Y","EPOCH":"2026-03-07T14:24:58.272480","MEAN_MOTION":14.83448954,"ECCENTRICITY":8.794e-5,"INCLINATION":51.8992,"RA_OF_ASC_NODE":135.1453,"ARG_OF_PERICENTER":43.2584,"MEAN_ANOMALY":316.8449,"EPHEMERIS_TYPE":0,"CLASSIFICATION_TYPE":"U","NORAD_CAT_ID":63746,"ELEMENT_SET_NO":999,"REV_AT_EPOCH":4730,"BSTAR":0.00092543931,"MEAN_MOTION_DOT":7.456e-5,"MEAN_MOTION_DDOT":0},{"OBJECT_NAME":"KUIPER-00034","OBJECT_ID":"2025-088Z","EPOCH":"2026-03-07T06:52:18.393600","MEAN_MOTION":14.83525573,"ECCENTRICITY":0.0001792,"INCLINATION":51.9004,"RA_OF_ASC_NODE":98.8804,"ARG_OF_PERICENTER":344.974,"MEAN_ANOMALY":15.117,"EPHEMERIS_TYPE":0,"CLASSIFICATION_TYPE":"U","NORAD_CAT_ID":63747,"ELEMENT_SET_NO":999,"REV_AT_EPOCH":4746,"BSTAR":0.00075251,"MEAN_MOTION_DOT":6.03e-5,"MEAN_MOTION_DDOT":0},{"OBJECT_NAME":"KUIPER-00035","OBJECT_ID":"2025-088AA","EPOCH":"2026-03-07T11:01:52.205664","MEAN_MOTION":14.83283922,"ECCENTRICITY":0.00038556,"INCLINATION":51.9002,"RA_OF_ASC_NODE":123.7791,"ARG_OF_PERICENTER":68.4857,"MEAN_ANOMALY":291.6518,"EPHEMERIS_TYPE":0,"CLASSIFICATION_TYPE":"U","NORAD_CAT_ID":63748,"ELEMENT_SET_NO":999,"REV_AT_EPOCH":4718,"BSTAR":0.0010621981,"MEAN_MOTION_DOT":8.558e-5,"MEAN_MOTION_DDOT":0},{"OBJECT_NAME":"KUIPER-00037","OBJECT_ID":"2025-088AB","EPOCH":"2026-03-07T13:09:13.156416","MEAN_MOTION":14.79974927,"ECCENTRICITY":8.7e-5,"INCLINATION":51.8986,"RA_OF_ASC_NODE":122.5298,"ARG_OF_PERICENTER":63.1237,"MEAN_ANOMALY":296.9815,"EPHEMERIS_TYPE":0,"CLASSIFICATION_TYPE":"U","NORAD_CAT_ID":63749,"ELEMENT_SET_NO":999,"REV_AT_EPOCH":4799,"BSTAR":0.00094428479,"MEAN_MOTION_DOT":6.992e-5,"MEAN_MOTION_DDOT":0},{"OBJECT_NAME":"KUIPER-00038","OBJECT_ID":"2025-088AC","EPOCH":"2026-03-07T11:55:17.705280","MEAN_MOTION":14.7994237,"ECCENTRICITY":7.283e-5,"INCLINATION":51.9009,"RA_OF_ASC_NODE":107.7851,"ARG_OF_PERICENTER":110.973,"MEAN_ANOMALY":249.1311,"EPHEMERIS_TYPE":0,"CLASSIFICATION_TYPE":"U","NORAD_CAT_ID":63750,"ELEMENT_SET_NO":999,"REV_AT_EPOCH":4719,"BSTAR":-0.00028531805,"MEAN_MOTION_DOT":-2.396e-5,"MEAN_MOTION_DDOT":0},{"OBJECT_NAME":"KUIPER-00039","OBJECT_ID":"2025-134A","EPOCH":"2026-03-07T11:15:58.528224","MEAN_MOTION":14.79953253,"ECCENTRICITY":0.00010933,"INCLINATION":51.8993,"RA_OF_ASC_NODE":242.9099,"ARG_OF_PERICENTER":68.9268,"MEAN_ANOMALY":291.1811,"EPHEMERIS_TYPE":0,"CLASSIFICATION_TYPE":"U","NORAD_CAT_ID":64500,"ELEMENT_SET_NO":999,"REV_AT_EPOCH":3974,"BSTAR":0.00076249393,"MEAN_MOTION_DOT":5.599e-5,"MEAN_MOTION_DDOT":0},{"OBJECT_NAME":"KUIPER-00040","OBJECT_ID":"2025-134B","EPOCH":"2026-03-07T12:35:01.203936","MEAN_MOTION":14.79945313,"ECCENTRICITY":0.00123567,"INCLINATION":51.8986,"RA_OF_ASC_NODE":253.8079,"ARG_OF_PERICENTER":259.7009,"MEAN_ANOMALY":100.256,"EPHEMERIS_TYPE":0,"CLASSIFICATION_TYPE":"U","NORAD_CAT_ID":64501,"ELEMENT_SET_NO":999,"REV_AT_EPOCH":3959,"BSTAR":-0.001112441,"MEAN_MOTION_DOT":-8.708e-5,"MEAN_MOTION_DDOT":0},{"OBJECT_NAME":"KUIPER-00041","OBJECT_ID":"2025-134C","EPOCH":"2026-03-07T12:45:21.651840","MEAN_MOTION":14.78726436,"ECCENTRICITY":0.00071275,"INCLINATION":51.8981,"RA_OF_ASC_NODE":255.2112,"ARG_OF_PERICENTER":258.5724,"MEAN_ANOMALY":101.4438,"EPHEMERIS_TYPE":0,"CLASSIFICATION_TYPE":"U","NORAD_CAT_ID":64502,"ELEMENT_SET_NO":999,"REV_AT_EPOCH":3957,"BSTAR":0.00069088308,"MEAN_MOTION_DOT":4.903e-5,"MEAN_MOTION_DDOT":0},{"OBJECT_NAME":"KUIPER-00042","OBJECT_ID":"2025-134D","EPOCH":"2026-03-06T12:20:19.739904","MEAN_MOTION":14.79965457,"ECCENTRICITY":0.00071003,"INCLINATION":51.8972,"RA_OF_ASC_NODE":255.6339,"ARG_OF_PERICENTER":270.8636,"MEAN_ANOMALY":89.1513,"EPHEMERIS_TYPE":0,"CLASSIFICATION_TYPE":"U","NORAD_CAT_ID":64503,"ELEMENT_SET_NO":999,"REV_AT_EPOCH":3948,"BSTAR":0.00063794603,"MEAN_MOTION_DOT":4.65e-5,"MEAN_MOTION_DDOT":0},{"OBJECT_NAME":"KUIPER-00043","OBJECT_ID":"2025-134E","EPOCH":"2026-03-05T21:23:43.064160","MEAN_MOTION":14.83803217,"ECCENTRICITY":9.947e-5,"INCLINATION":51.9013,"RA_OF_ASC_NODE":249.9165,"ARG_OF_PERICENTER":325.355,"MEAN_ANOMALY":34.7349,"EPHEMERIS_TYPE":0,"CLASSIFICATION_TYPE":"U","NORAD_CAT_ID":64504,"ELEMENT_SET_NO":999,"REV_AT_EPOCH":3951,"BSTAR":0.00058232696,"MEAN_MOTION_DOT":4.646e-5,"MEAN_MOTION_DDOT":0},{"OBJECT_NAME":"KUIPER-00044","OBJECT_ID":"2025-134F","EPOCH":"2026-03-07T12:31:16.163040","MEAN_MOTION":14.79935729,"ECCENTRICITY":0.00083655,"INCLINATION":51.9054,"RA_OF_ASC_NODE":256.1798,"ARG_OF_PERICENTER":271.1763,"MEAN_ANOMALY":88.8241,"EPHEMERIS_TYPE":0,"CLASSIFICATION_TYPE":"U","NORAD_CAT_ID":64505,"ELEMENT_SET_NO":999,"REV_AT_EPOCH":3956,"BSTAR":0.0011784992,"MEAN_MOTION_DOT":8.778e-5,"MEAN_MOTION_DDOT":0}]
